#cP2013  3 20  0  0  0.00000000      96 ORBIT IGb08 HLM  IGS
## 1732 259200.00000000   900.00000000 56371 0.0000000000000
+   31   G01G02G03G04G05G06G07G08G09G10G11G12G13G14G15G16G17
+        G18G19G20G21G22G23G24G25G26G28G29G30G31G32  0  0  0
+          0  0  0  0  0  0  0  0  0  0  0  0  0  0  0  0  0
+          0  0  0  0  0  0  0  0  0  0  0  0  0  0  0  0  0
+          0  0  0  0  0  0  0  0  0  0  0  0  0  0  0  0  0
++         2  2  2  2  2  2  2  2  2  2  2  2  2  2  2  2  2
++         2  2  2  2  2  2  2  2  2  2  2  2  2  2  0  0  0
++         0  0  0  0  0  0  0  0  0  0  0  0  0  0  0  0  0
++         0  0  0  0  0  0  0  0  0  0  0  0  0  0  0  0  0
++         0  0  0  0  0  0  0  0  0  0  0  0  0  0  0  0  0
%c G  cc GPS ccc cccc cccc cccc cccc ccccc ccccc ccccc ccccc
%c cc cc ccc ccc cccc cccc cccc cccc ccccc ccccc ccccc ccccc
%f  1.2500000  1.025000000  0.00000000000  0.000000000000000
%f  0.0000000  0.000000000  0.00000000000  0.000000000000000
%i    0    0    0    0      0      0      0      0         0
%i    0    0    0    0      0      0      0      0         0
/* FINAL ORBIT COMBINATION FROM WEIGHTED AVERAGE OF:        
/* cod emr esa gfz grg jpl mit ngs sio                      
/* REFERENCED TO IGS TIME (IGST) AND TO WEIGHTED MEAN POLE: 
/* PCV:IGS08_1731 OL/AL:FES2004  NONE     Y  ORB:CMB CLK:CMB
*  2013  3 20  9  0  0.00000000
PG01  22543.467780  14037.434365  -1580.355729      8.938911  7  5  7  80       
PG02  -5149.434978 -18427.506549  18813.845292    423.125646  6  6  5 111       
PG03    613.554470  18219.276612 -19753.328497    183.068121  5  4  4 125       
PG04   9170.595262 -12675.752415  21197.114002    166.521083  6     8 108       
PG05  -2782.150038 -26110.321979  -3477.969189   -388.548655  7  5  4 108       
PG06  -6529.985285  19241.792733 -16824.354651    307.569356  5  3  5 103       
PG07  23201.211529   3831.613761 -12585.743758    193.243911  8  5  4 113       
PG08  17452.132818  -3197.056149 -19855.791074      5.212195  2  8  6 131       
PG09  -4351.694123 -17604.955028 -19920.376045    228.186191 10  6  9 103       
PG10   8992.656728 -21441.227376  12158.948676    -73.924212  7  2  5  81       
PG11  20437.732654  13659.647979 -10828.712292   -364.212529  8  3  4 106       
PG12 -11346.026036 -16465.532327  17561.702754    123.838990  8  7  3 111       
PG13  23601.692250  -2106.883897  11976.292602    136.228929  5  5  2 111       
PG14 -21068.463874  14987.629028   5932.773731    220.984187  2  6  4  99       
PG15 -11891.116493 -10782.121688 -21217.861990   -112.183362  8  9  6  95       
PG16    766.095895  26223.352457  -2717.200463   -252.621001  6  8  5  98       
PG17  19990.275347 -16029.475232   6714.767501     38.460529  5  4  4 121       
PG18 -15078.237424   7186.831841 -20192.816269    244.766407  7  3  6 121       
PG19   7892.936803  13091.872164 -21815.113311   -357.908575  9  7  5 127       
PG20  14191.221792  13429.301268  17848.200744     88.997196  6  7  3 119       
PG21 -22122.173099   -139.542236 -14524.134106   -287.110112  5  5  6 158       
PG22 -11065.384489  18848.103756 -14808.702614    161.666838  6  3  7 122       
PG23  18919.923409   4138.842601  18404.087936    103.238236  6  5  5 133       
PG24 -20865.945515 -15664.972968  -5083.791600     -2.998605  7  6  5 105       
PG25 -14826.717792  -4011.673279  21637.223464     79.532020  5  4  5 101       
PG26   1962.619779 -16635.922408 -21168.602865    -59.692475  7  5  4  94       
PG28  12240.730106 -15287.276180 -17271.868894    242.539738  5  3  5 102       
PG29 -23478.202160   2903.384672  12085.633252    418.482073  7  8  5 130       
PG30  -2878.018819  25039.916730   8056.672544   -202.995813  4  2  5  97       
PG31  -5980.770204  13682.258652  22125.653514    307.243712  3  3  3 132       
PG32   8304.935090  21425.083559  13896.624750   -544.518684  5     3  84       
*  2013  3 20  9 15  0.00000000
PG01  22127.526690  14099.412189  -4404.089772      8.941730  7  5  7  85       
PG02  -3151.575452 -17554.206593  20016.233214    423.127403  5  5  5 112       
PG03  -1088.946185  19468.844722 -18444.148813    183.074256  6  3  4 122       
PG04  11346.889216 -11509.198339  20836.496027    166.530835  5     7 112       
PG05  -2494.511605 -26357.488555   -650.345135   -388.549744  7  5  5 108       
PG06  -8164.238344  20140.501078 -14932.769394    307.555685  6  3  5 112       
PG07  24257.202739   4597.304887 -10129.904965    193.247780  8  6  4 103       
PG08  19235.412871  -1939.955554 -18372.998220      5.210613     8  7 116       
PG09  -2336.288818 -16637.489534 -21093.440075    228.187960 10  6  9  94       
PG10   9301.588411 -19868.097879  14383.876490    -73.925493  7  1  5  97       
PG11  19080.578499  13748.053226 -13030.919615   -364.215771  8  3  5 111       
PG12 -11252.703212 -18359.951591  15660.615865    123.840684  8  7  4 101       
PG13  22315.032510  -1289.078353  14295.092079    136.225662  6  5  2 113       
PG14 -21609.620391  15030.121206   3102.813241    220.984417  2  6  4 111       
PG15  -9876.280187 -12162.088933 -21480.935505   -112.184742  8  9  6  85       
PG16    550.524756  26365.748927    199.921297   -252.621092  7  7  5  81       
PG17  20625.565059 -16106.574649   3924.257385     38.456943  4  4  5 117       
PG18 -15266.928292   4749.945106 -20783.918454    244.767858  7  4  6 118       
PG19   5680.624960  14205.007297 -21769.930467   -357.911551  8  6  5 129       
PG20  14171.305469  15425.467225  16196.701901     88.998633  6  7  3 121       
PG21 -23436.612254  -1100.839979 -12392.265069   -287.112909  5  5  6 155       
PG22 -11382.659892  17012.244063 -16664.782276    161.667759  6  4  6 117       
PG23  17137.027080   5365.180062  19753.245273    103.235104  7  5  5 135       
PG24 -20099.136285 -15546.909590  -7806.003953     -2.999924  7  7  5  94       
PG25 -14899.746882  -6454.321799  20996.335501     79.535122  4  4  5 104       
PG26   3987.823257 -17580.792631 -20025.633720    -59.679158  7  5  4  96       
PG28  12342.593824 -13107.317928 -18879.931363    242.542792  5  4  5 102       
PG29 -22265.352773   1989.741663  14365.565335    418.485378  8  8  5 140       
PG30  -3264.382684  23969.978054  10636.267990   -202.990535  4  3  5 103       
PG31  -8165.356942  12486.673520  22158.969908    307.245125  3  4  2 128       
PG32   8045.838041  22839.688794  11630.005074   -544.521303  5     3  88       
*  2013  3 20  9 30  0.00000000
PG01  21428.436675  14053.577669  -7152.403080      8.944557  7  5  7 106       
PG02  -1003.251665 -16734.831277  20883.664654    423.129100  5  5  5 116       
PG03  -2615.571909  20689.326077 -16827.408132    183.079150  5  3  4 120       
PG04  13516.916192 -10475.204213  20109.546223    166.540062  5     7 110       
PG05  -2186.644386 -26299.008526   2188.565693   -388.551593  7  4  4 114       
PG06  -9576.166708  20971.413579 -12778.569019    307.541925  5  3  5 103       
PG07  25094.088310   5180.272572  -7502.167735    193.251612  8  6  3 110       
PG08  20926.018948   -886.475135 -16577.925818      5.209861  2  8  7 127       
PG09   -170.043761 -15742.534570 -21919.677270    228.191340 10  6  8  97       
PG10   9705.638377 -18072.016028  16351.903800    -73.927204  6  2  5  96       
PG11  17501.698166  13860.187928 -15016.923530   -364.219083  9  3  5  99       
PG12 -11249.329434 -20025.726802  13492.015537    123.842700  8  6  4 106       
PG13  20859.120987   -274.299635  16367.096159    136.222867  6  5  3 114       
PG14 -21872.828306  14929.517777    219.136131    220.984332  2  6  4 118       
PG15  -7922.567163 -13646.309583 -21375.522509   -112.185999  7  9  6  88       
PG16    325.204576  26186.430060   3113.528328   -252.621008  7  6  6  88       
PG17  20989.614930 -16038.001393   1065.473624     38.453787  5  4  5 115       
PG18 -15570.455313   2280.792309 -21003.437008    244.769617  7  4  5 117       
PG19   3548.546667  15421.359401 -21352.170005   -357.914228  8  5  6 135       
PG20  14214.933567  17218.205770  14263.881837     89.000267  6  7  4 111       
PG21 -24561.753578  -1887.565445 -10046.439309   -287.114882  6  5  6 156       
PG22 -11802.040126  14999.349884 -18228.676459    161.668796  5  5  6 120       
PG23  15309.411504   6760.838821  20767.619910    103.231890  7  4  5 131       
PG24 -19052.449180 -15347.676529 -10394.198606     -3.000279  7  7  5 106       
PG25 -15094.101080  -8795.755371  19993.445289     79.538208  4  4  5 100       
PG26   5837.482733 -18565.817931 -18552.595946    -59.665893  7  5  4  95       
PG28  12570.257732 -10767.155927 -20145.203992    242.546049  5  5  5  98       
PG29 -20898.086351    880.842212  16398.608030    418.488516  8  8  5 140       
PG30  -3765.250335  22642.147878  13029.990411   -202.985297  4  4  4 105       
PG31 -10395.280474  11423.495938  21817.517965    307.246497  2  4  2 126       
PG32   7856.679912  24001.609281   9169.908577   -544.523856  5     4  81       
EOF
